start=new Date('2023-04-04T00:00:00.000Z').valueOf();
sats=[{"CENTER_NAME":"EARTH","TLE_LINE2":"2 48321  53.0523 230.7745 0001097  70.4723 289.6384 15.06398987106560","SEMIMAJOR_AXIS":"6925.352","OBJECT_TYPE":"PAYLOAD","SITE":"AFETR","MEAN_MOTION_DDOT":"0.0000000000000","REF_FRAME":"TEME","ELEMENT_SET_NO":"999","PERIAPSIS":"546.457","TIME_SYSTEM":"UTC","BSTAR":"0.00222700000000","COUNTRY_CODE":"US","ECCENTRICITY":"0.00010970","INCLINATION":"53.0523","REV_AT_EPOCH":"10656","DECAY_DATE":null,"APOAPSIS":"547.976","EPHEMERIS_TYPE":"0","MEAN_MOTION":"15.06398987","CLASSIFICATION_TYPE":"U","PERIOD":"95.592","OBJECT_NAME":"STARLINK-2457","TLE_LINE1":"1 48321U 21036AX  23093.41111645  .00033045  00000-0  22270-2 0  9990","LAUNCH_DATE":"2021-04-29","MEAN_ANOMALY":"289.6384","OBJECT_ID":"2021-036AX","RA_OF_ASC_NODE":"230.7745","MEAN_ELEMENT_THEORY":"SGP4","NORAD_CAT_ID":"48321","EPOCH":"2023-04-03T09:52:00.461280","MEAN_MOTION_DOT":"0.00033045","GP_ID":"229389624","ARG_OF_PERICENTER":"70.4723","FILE":"3879059","RCS_SIZE":"LARGE"},{"EPOCH":"2023-04-03T17:44:23.011872","MEAN_MOTION_DOT":"0.00032672","GP_ID":"229422254","ARG_OF_PERICENTER":"67.9177","FILE":"3879321","RCS_SIZE":"LARGE","NORAD_CAT_ID":"48322","OBJECT_NAME":"STARLINK-2477","TLE_LINE1":"1 48322U 21036AY  23093.73915523  .00032672  00000-0  22003-2 0  9992","LAUNCH_DATE":"2021-04-29","MEAN_ANOMALY":"292.1934","OBJECT_ID":"2021-036AY","RA_OF_ASC_NODE":"229.3019","MEAN_ELEMENT_THEORY":"SGP4","DECAY_DATE":null,"APOAPSIS":"547.912","MEAN_MOTION":"15.06431438","EPHEMERIS_TYPE":"0","CLASSIFICATION_TYPE":"U","PERIOD":"95.590","ECCENTRICITY":"0.00011480","INCLINATION":"53.0520","REV_AT_EPOCH":"10661","TIME_SYSTEM":"UTC","BSTAR":"0.00220030000000","COUNTRY_CODE":"US","SITE":"AFETR","MEAN_MOTION_DDOT":"0.0000000000000","REF_FRAME":"TEME","ELEMENT_SET_NO":"999","PERIAPSIS":"546.322","CENTER_NAME":"EARTH","SEMIMAJOR_AXIS":"6925.252","TLE_LINE2":"2 48322  53.0520 229.3019 0001148  67.9177 292.1934 15.06431438106612","OBJECT_TYPE":"PAYLOAD"},{"APOAPSIS":"547.917","MEAN_MOTION":"15.06429134","EPHEMERIS_TYPE":"0","DECAY_DATE":null,"PERIOD":"95.590","CLASSIFICATION_TYPE":"U","MEAN_ANOMALY":"317.7523","LAUNCH_DATE":"2021-04-29","OBJECT_NAME":"STARLINK-2515","TLE_LINE1":"1 48323U 21036AZ  23093.66913900  .00032639  00000-0  21982-2 0  9990","MEAN_ELEMENT_THEORY":"SGP4","OBJECT_ID":"2021-036AZ","RA_OF_ASC_NODE":"229.6160","NORAD_CAT_ID":"48323","GP_ID":"229423506","ARG_OF_PERICENTER":"42.3554","FILE":"3879321","EPOCH":"2023-04-03T16:03:33.609600","MEAN_MOTION_DOT":"0.00032639","RCS_SIZE":"LARGE","TLE_LINE2":"2 48323  53.0523 229.6160 0001145  42.3554 317.7523 15.06429134106606","OBJECT_TYPE":"PAYLOAD","SEMIMAJOR_AXIS":"6925.259","CENTER_NAME":"EARTH","REF_FRAME":"TEME","SITE":"AFETR","MEAN_MOTION_DDOT":"0.0000000000000","PERIAPSIS":"546.331","ELEMENT_SET_NO":"999","BSTAR":"0.00219820000000","TIME_SYSTEM":"UTC","COUNTRY_CODE":"US","ECCENTRICITY":"0.00011450","REV_AT_EPOCH":"10660","INCLINATION":"53.0523"},{"PERIOD":"95.591","CLASSIFICATION_TYPE":"U","DECAY_DATE":null,"APOAPSIS":"547.986","EPHEMERIS_TYPE":"0","MEAN_MOTION":"15.06418298","OBJECT_ID":"2021-036BA","RA_OF_ASC_NODE":"229.0302","MEAN_ELEMENT_THEORY":"SGP4","OBJECT_NAME":"STARLINK-2527","TLE_LINE1":"1 48324U 21036BA  23093.79717215  .00037552  00000-0  25253-2 0  9990","MEAN_ANOMALY":"281.0197","LAUNCH_DATE":"2021-04-29","NORAD_CAT_ID":"48324","RCS_SIZE":"LARGE","EPOCH":"2023-04-03T19:07:55.673760","MEAN_MOTION_DOT":"0.00037552","GP_ID":"229423250","FILE":"3879321","ARG_OF_PERICENTER":"79.0927","CENTER_NAME":"EARTH","OBJECT_TYPE":"PAYLOAD","TLE_LINE2":"2 48324  53.0518 229.0302 0001196  79.0927 281.0197 15.06418298106610","SEMIMAJOR_AXIS":"6925.292","ELEMENT_SET_NO":"999","PERIAPSIS":"546.329","SITE":"AFETR","MEAN_MOTION_DDOT":"0.0000000000000","REF_FRAME":"TEME","COUNTRY_CODE":"US","TIME_SYSTEM":"UTC","BSTAR":"0.00252530000000","INCLINATION":"53.0518","REV_AT_EPOCH":"10661","ECCENTRICITY":"0.00011960"},{"PERIAPSIS":"546.251","ELEMENT_SET_NO":"999","REF_FRAME":"TEME","MEAN_MOTION_DDOT":"0.0000000000000","SITE":"AFETR","TLE_LINE2":"2 48325  53.0530 230.8428 0001403  39.1003 321.0087 15.06396978106564","OBJECT_TYPE":"PAYLOAD","SEMIMAJOR_AXIS":"6925.358","CENTER_NAME":"EARTH","REV_AT_EPOCH":"10656","INCLINATION":"53.0530","ECCENTRICITY":"0.00014030","COUNTRY_CODE":"US","BSTAR":"0.00051770000000","TIME_SYSTEM":"UTC","MEAN_ELEMENT_THEORY":"SGP4","RA_OF_ASC_NODE":"230.8428","OBJECT_ID":"2021-036BB","MEAN_ANOMALY":"321.0087","LAUNCH_DATE":"2021-04-29","TLE_LINE1":"1 48325U 21036BB  23093.39638578  .00007437  00000-0  51770-3 0  9994","OBJECT_NAME":"STARLINK-2495","CLASSIFICATION_TYPE":"U","PERIOD":"95.592","EPHEMERIS_TYPE":"0","MEAN_MOTION":"15.06396978","APOAPSIS":"548.194","DECAY_DATE":null,"RCS_SIZE":"LARGE","ARG_OF_PERICENTER":"39.1003","FILE":"3879059","GP_ID":"229390112","MEAN_MOTION_DOT":"0.00007437","EPOCH":"2023-04-03T09:30:47.731392","NORAD_CAT_ID":"48325"},{"NORAD_CAT_ID":"48326","EPOCH":"2023-04-03T09:25:29.394048","MEAN_MOTION_DOT":"0.00034208","GP_ID":"229390864","ARG_OF_PERICENTER":"82.4214","FILE":"3879059","RCS_SIZE":"LARGE","DECAY_DATE":null,"APOAPSIS":"548.014","MEAN_MOTION":"15.06422761","EPHEMERIS_TYPE":"0","PERIOD":"95.591","CLASSIFICATION_TYPE":"U","OBJECT_NAME":"STARLINK-2498","TLE_LINE1":"1 48326U 21036BC  23093.39270132  .00034208  00000-0  23029-2 0  9994","MEAN_ANOMALY":"277.6917","LAUNCH_DATE":"2021-04-29","OBJECT_ID":"2021-036BC","RA_OF_ASC_NODE":"230.8575","MEAN_ELEMENT_THEORY":"SGP4","TIME_SYSTEM":"UTC","BSTAR":"0.00230290000000","COUNTRY_CODE":"US","ECCENTRICITY":"0.00012560","INCLINATION":"53.0535","REV_AT_EPOCH":"10656","CENTER_NAME":"EARTH","SEMIMAJOR_AXIS":"6925.279","TLE_LINE2":"2 48326  53.0535 230.8575 0001256  82.4214 277.6917 15.06422761106562","OBJECT_TYPE":"PAYLOAD","SITE":"AFETR","MEAN_MOTION_DDOT":"0.0000000000000","REF_FRAME":"TEME","ELEMENT_SET_NO":"999","PERIAPSIS":"546.274"},{"CLASSIFICATION_TYPE":"U","PERIOD":"95.586","APOAPSIS":"547.779","EPHEMERIS_TYPE":"0","MEAN_MOTION":"15.06489927","DECAY_DATE":null,"MEAN_ELEMENT_THEORY":"SGP4","OBJECT_ID":"2021-036BD","RA_OF_ASC_NODE":"230.8756","LAUNCH_DATE":"2021-04-29","MEAN_ANOMALY":"283.0558","OBJECT_NAME":"STARLINK-2502","TLE_LINE1":"1 48327U 21036BD  23093.38896123  .00035381  00000-0  23765-2 0  9998","NORAD_CAT_ID":"48327","RCS_SIZE":"LARGE","GP_ID":"229391108","FILE":"3879059","ARG_OF_PERICENTER":"77.0566","EPOCH":"2023-04-03T09:20:06.250272","MEAN_MOTION_DOT":"0.00035381","SEMIMAJOR_AXIS":"6925.073","TLE_LINE2":"2 48327  53.0531 230.8756 0001214  77.0566 283.0558 15.06489927106563","OBJECT_TYPE":"PAYLOAD","CENTER_NAME":"EARTH","PERIAPSIS":"546.097","ELEMENT_SET_NO":"999","REF_FRAME":"TEME","SITE":"AFETR","MEAN_MOTION_DDOT":"0.0000000000000","COUNTRY_CODE":"US","BSTAR":"0.00237650000000","TIME_SYSTEM":"UTC","REV_AT_EPOCH":"10656","INCLINATION":"53.0531","ECCENTRICITY":"0.00012140"},{"INCLINATION":"53.0539","REV_AT_EPOCH":"10658","ECCENTRICITY":"0.00010220","COUNTRY_CODE":"US","TIME_SYSTEM":"UTC","BSTAR":"0.00209240000000","ELEMENT_SET_NO":"999","PERIAPSIS":"546.416","MEAN_MOTION_DDOT":"0.0000000000000","SITE":"AFETR","REF_FRAME":"TEME","CENTER_NAME":"EARTH","SEMIMAJOR_AXIS":"6925.258","TLE_LINE2":"2 48328  53.0539 230.2883 0001022  76.1639 283.9463 15.06429428106581","OBJECT_TYPE":"PAYLOAD","RCS_SIZE":"LARGE","MEAN_MOTION_DOT":"0.00031047","EPOCH":"2023-04-03T12:24:35.018208","FILE":"3879059","ARG_OF_PERICENTER":"76.1639","GP_ID":"229389375","NORAD_CAT_ID":"48328","RA_OF_ASC_NODE":"230.2883","OBJECT_ID":"2021-036BE","MEAN_ELEMENT_THEORY":"SGP4","TLE_LINE1":"1 48328U 21036BE  23093.51707197  .00031047  00000-0  20924-2 0  9995","OBJECT_NAME":"STARLINK-2504","LAUNCH_DATE":"2021-04-29","MEAN_ANOMALY":"283.9463","PERIOD":"95.590","CLASSIFICATION_TYPE":"U","DECAY_DATE":null,"EPHEMERIS_TYPE":"0","MEAN_MOTION":"15.06429428","APOAPSIS":"547.831"},{"APOAPSIS":"548.060","EPHEMERIS_TYPE":"0","MEAN_MOTION":"15.06421668","DECAY_DATE":null,"PERIOD":"95.591","CLASSIFICATION_TYPE":"U","MEAN_ANOMALY":"292.4972","LAUNCH_DATE":"2021-04-29","OBJECT_NAME":"STARLINK-2510","TLE_LINE1":"1 48329U 21036BF  23093.51433276  .00028902  00000-0  19501-2 0  9995","MEAN_ELEMENT_THEORY":"SGP4","OBJECT_ID":"2021-036BF","RA_OF_ASC_NODE":"230.3089","NORAD_CAT_ID":"48329","GP_ID":"229389625","ARG_OF_PERICENTER":"67.6157","FILE":"3879059","EPOCH":"2023-04-03T12:20:38.350464","MEAN_MOTION_DOT":"0.00028902","RCS_SIZE":"LARGE","OBJECT_TYPE":"PAYLOAD","TLE_LINE2":"2 48329  53.0531 230.3089 0001318  67.6157 292.4972 15.06421668106589","SEMIMAJOR_AXIS":"6925.282","CENTER_NAME":"EARTH","REF_FRAME":"TEME","SITE":"AFETR","MEAN_MOTION_DDOT":"0.0000000000000","PERIAPSIS":"546.234","ELEMENT_SET_NO":"999","BSTAR":"0.00195010000000","TIME_SYSTEM":"UTC","COUNTRY_CODE":"US","ECCENTRICITY":"0.00013180","REV_AT_EPOCH":"10658","INCLINATION":"53.0531"},{"DECAY_DATE":null,"MEAN_MOTION":"15.06421172","EPHEMERIS_TYPE":"0","APOAPSIS":"547.942","PERIOD":"95.591","CLASSIFICATION_TYPE":"U","TLE_LINE1":"1 48330U 21036BG  23093.37795723  .00033271  00000-0  22407-2 0  9993","OBJECT_NAME":"STARLINK-2501","MEAN_ANOMALY":"278.7297","LAUNCH_DATE":"2021-04-29","RA_OF_ASC_NODE":"230.9246","OBJECT_ID":"2021-036BG","MEAN_ELEMENT_THEORY":"SGP4","NORAD_CAT_ID":"48330","MEAN_MOTION_DOT":"0.00033271","EPOCH":"2023-04-03T09:04:15.504672","FILE":"3879059","ARG_OF_PERICENTER":"81.3821","GP_ID":"229390377","RCS_SIZE":"LARGE","CENTER_NAME":"EARTH","OBJECT_TYPE":"PAYLOAD","TLE_LINE2":"2 48330  53.0526 230.9246 0001146  81.3821 278.7297 15.06421172106561","SEMIMAJOR_AXIS":"6925.284","MEAN_MOTION_DDOT":"0.0000000000000","SITE":"AFETR","REF_FRAME":"TEME","ELEMENT_SET_NO":"999","PERIAPSIS":"546.355","TIME_SYSTEM":"UTC","BSTAR":"0.00224070000000","COUNTRY_CODE":"US","ECCENTRICITY":"0.00011460","INCLINATION":"53.0526","REV_AT_EPOCH":"10656"}];
